start=new Date('2023-05-01T00:00:00.000Z').valueOf();
sats=[{"REF_FRAME":"TEME","DECAY_DATE":null,"MEAN_MOTION_DOT":"0.00009707","MEAN_ELEMENT_THEORY":"SGP4","FILE":"3897442","RA_OF_ASC_NODE":"75.0624","MEAN_MOTION":"15.06396076","TLE_LINE2":"2 45668  53.0535  75.0624 0001137  89.5836 270.5283 15.06396076161320","REV_AT_EPOCH":"16132","TIME_SYSTEM":"UTC","CENTER_NAME":"EARTH","TLE_LINE1":"1 45668U 20035M   23120.30049219  .00009707  00000-0  66974-3 0  9993","LAUNCH_DATE":"2020-06-04","CLASSIFICATION_TYPE":"U","NORAD_CAT_ID":"45668","OBJECT_TYPE":"PAYLOAD","GP_ID":"230973003","APOAPSIS":"548.013","MEAN_MOTION_DDOT":"0.0000000000000","OBJECT_ID":"2020-035M","BSTAR":"0.00066974000000","EPOCH":"2023-04-30T07:12:42.525216","ELEMENT_SET_NO":"999","ECCENTRICITY":"0.00011370","SEMIMAJOR_AXIS":"6925.361","COUNTRY_CODE":"US","EPHEMERIS_TYPE":"0","PERIAPSIS":"546.438","SITE":"AFETR","OBJECT_NAME":"STARLINK-1451","ARG_OF_PERICENTER":"89.5836","RCS_SIZE":"LARGE","MEAN_ANOMALY":"270.5283","INCLINATION":"53.0535","PERIOD":"95.592"},{"CENTER_NAME":"EARTH","TIME_SYSTEM":"UTC","OBJECT_ID":"2020-035N","APOAPSIS":"548.248","MEAN_MOTION_DDOT":"0.0000000000000","GP_ID":"230973253","OBJECT_TYPE":"PAYLOAD","NORAD_CAT_ID":"45669","LAUNCH_DATE":"2020-06-04","TLE_LINE1":"1 45669U 20035N   23120.34934391  .00002353  00000-0  17682-3 0  9994","CLASSIFICATION_TYPE":"U","REF_FRAME":"TEME","REV_AT_EPOCH":"16132","TLE_LINE2":"2 45669  53.0536  74.8413 0001468  93.1905 266.9252 15.06394107161328","MEAN_MOTION":"15.06394107","RA_OF_ASC_NODE":"74.8413","FILE":"3897442","MEAN_ELEMENT_THEORY":"SGP4","MEAN_MOTION_DOT":"0.00002353","DECAY_DATE":null,"SITE":"AFETR","PERIAPSIS":"546.215","INCLINATION":"53.0536","PERIOD":"95.593","MEAN_ANOMALY":"266.9252","RCS_SIZE":"LARGE","ARG_OF_PERICENTER":"93.1905","OBJECT_NAME":"STARLINK-1452","SEMIMAJOR_AXIS":"6925.367","ECCENTRICITY":"0.00014680","ELEMENT_SET_NO":"999","EPOCH":"2023-04-30T08:23:03.313824","BSTAR":"0.00017682000000","EPHEMERIS_TYPE":"0","COUNTRY_CODE":"US"},{"BSTAR":"0.00026103000000","SEMIMAJOR_AXIS":"6925.378","EPOCH":"2023-04-30T05:00:02.180448","ELEMENT_SET_NO":"999","ECCENTRICITY":"0.00016110","EPHEMERIS_TYPE":"0","COUNTRY_CODE":"US","PERIAPSIS":"546.127","SITE":"AFETR","OBJECT_NAME":"STARLINK-1453","ARG_OF_PERICENTER":"86.8435","MEAN_ANOMALY":"273.2738","INCLINATION":"53.0546","PERIOD":"95.593","RCS_SIZE":"LARGE","REF_FRAME":"TEME","MEAN_ELEMENT_THEORY":"SGP4","DECAY_DATE":null,"MEAN_MOTION_DOT":"0.00003608","MEAN_MOTION":"15.06390454","REV_AT_EPOCH":"16161","TLE_LINE2":"2 45670  53.0546  45.4740 0001611  86.8435 273.2738 15.06390454161618","FILE":"3897442","RA_OF_ASC_NODE":"45.4740","TIME_SYSTEM":"UTC","CENTER_NAME":"EARTH","NORAD_CAT_ID":"45670","TLE_LINE1":"1 45670U 20035P   23120.20835857  .00003608  00000-0  26103-3 0  9990","LAUNCH_DATE":"2020-06-04","CLASSIFICATION_TYPE":"U","APOAPSIS":"548.358","MEAN_MOTION_DDOT":"0.0000000000000","OBJECT_ID":"2020-035P","OBJECT_TYPE":"PAYLOAD","GP_ID":"230973504"},{"REF_FRAME":"TEME","RA_OF_ASC_NODE":"75.1218","FILE":"3897442","REV_AT_EPOCH":"16130","TLE_LINE2":"2 45671  53.0539  75.1218 0001107  85.3584 274.7531 15.06392969161306","MEAN_MOTION":"15.06392969","MEAN_MOTION_DOT":"0.00007097","DECAY_DATE":null,"MEAN_ELEMENT_THEORY":"SGP4","CENTER_NAME":"EARTH","TIME_SYSTEM":"UTC","GP_ID":"230974253","OBJECT_TYPE":"PAYLOAD","OBJECT_ID":"2020-035Q","MEAN_MOTION_DDOT":"0.0000000000000","APOAPSIS":"548.002","TLE_LINE1":"1 45671U 20035Q   23120.28668414  .00007097  00000-0  49494-3 0  9996","CLASSIFICATION_TYPE":"U","LAUNCH_DATE":"2020-06-04","NORAD_CAT_ID":"45671","ECCENTRICITY":"0.00011070","ELEMENT_SET_NO":"999","EPOCH":"2023-04-30T06:52:49.509696","SEMIMAJOR_AXIS":"6925.370","BSTAR":"0.00049494000000","COUNTRY_CODE":"US","EPHEMERIS_TYPE":"0","SITE":"AFETR","PERIAPSIS":"546.468","RCS_SIZE":"LARGE","INCLINATION":"53.0539","PERIOD":"95.593","MEAN_ANOMALY":"274.7531","ARG_OF_PERICENTER":"85.3584","OBJECT_NAME":"STARLINK-1454"},{"GP_ID":"230972503","OBJECT_TYPE":"PAYLOAD","OBJECT_ID":"2020-035R","APOAPSIS":"548.204","MEAN_MOTION_DDOT":"0.0000000000000","CLASSIFICATION_TYPE":"U","TLE_LINE1":"1 45672U 20035R   23120.16413392  .00021866  00000-0  14826-2 0  9997","LAUNCH_DATE":"2020-06-04","NORAD_CAT_ID":"45672","TIME_SYSTEM":"UTC","CENTER_NAME":"EARTH","RA_OF_ASC_NODE":"45.6727","FILE":"3897442","TLE_LINE2":"2 45672  53.0540  45.6727 0001393  96.6003 263.5145 15.06391593161718","REV_AT_EPOCH":"16171","MEAN_MOTION":"15.06391593","MEAN_MOTION_DOT":"0.00021866","DECAY_DATE":null,"MEAN_ELEMENT_THEORY":"SGP4","REF_FRAME":"TEME","RCS_SIZE":"LARGE","INCLINATION":"53.0540","PERIOD":"95.593","MEAN_ANOMALY":"263.5145","ARG_OF_PERICENTER":"96.6003","OBJECT_NAME":"STARLINK-1455","SITE":"AFETR","PERIAPSIS":"546.275","COUNTRY_CODE":"US","EPHEMERIS_TYPE":"0","ECCENTRICITY":"0.00013930","ELEMENT_SET_NO":"999","EPOCH":"2023-04-30T03:56:21.170688","SEMIMAJOR_AXIS":"6925.374","BSTAR":"0.00148260000000"},{"SEMIMAJOR_AXIS":"6925.365","EPOCH":"2023-04-30T07:14:03.085440","ELEMENT_SET_NO":"999","ECCENTRICITY":"0.00016890","BSTAR":"0.00048562000000","EPHEMERIS_TYPE":"0","COUNTRY_CODE":"US","SITE":"AFETR","PERIAPSIS":"546.061","MEAN_ANOMALY":"250.1116","INCLINATION":"53.0536","PERIOD":"95.592","RCS_SIZE":"LARGE","OBJECT_NAME":"STARLINK-1456","ARG_OF_PERICENTER":"110.0055","REF_FRAME":"TEME","MEAN_MOTION":"15.06394497","REV_AT_EPOCH":"16132","TLE_LINE2":"2 45673  53.0536  75.0566 0001689 110.0055 250.1116 15.06394497161321","FILE":"3897442","RA_OF_ASC_NODE":"75.0566","MEAN_ELEMENT_THEORY":"SGP4","DECAY_DATE":null,"MEAN_MOTION_DOT":"0.00006958","CENTER_NAME":"EARTH","TIME_SYSTEM":"UTC","APOAPSIS":"548.400","MEAN_MOTION_DDOT":"0.0000000000000","OBJECT_ID":"2020-035S","OBJECT_TYPE":"PAYLOAD","GP_ID":"230972753","NORAD_CAT_ID":"45673","LAUNCH_DATE":"2020-06-04","TLE_LINE1":"1 45673U 20035S   23120.30142460  .00006958  00000-0  48562-3 0  9999","CLASSIFICATION_TYPE":"U"},{"REF_FRAME":"TEME","MEAN_MOTION":"15.06401682","TLE_LINE2":"2 45674  53.0533  75.0232 0001759  88.7226 271.3964 15.06401682161295","REV_AT_EPOCH":"16129","FILE":"3897442","RA_OF_ASC_NODE":"75.0232","MEAN_ELEMENT_THEORY":"SGP4","DECAY_DATE":null,"MEAN_MOTION_DOT":"0.00001013","CENTER_NAME":"EARTH","TIME_SYSTEM":"UTC","APOAPSIS":"548.427","MEAN_MOTION_DDOT":"0.0000000000000","OBJECT_ID":"2020-035T","OBJECT_TYPE":"PAYLOAD","GP_ID":"230974003","NORAD_CAT_ID":"45674","LAUNCH_DATE":"2020-06-04","TLE_LINE1":"1 45674U 20035T   23120.30880660  .00001013  00000-0  86913-4 0  9991","CLASSIFICATION_TYPE":"U","SEMIMAJOR_AXIS":"6925.343","EPOCH":"2023-04-30T07:24:40.890240","ELEMENT_SET_NO":"999","ECCENTRICITY":"0.00017590","BSTAR":"0.00008691300000","EPHEMERIS_TYPE":"0","COUNTRY_CODE":"US","SITE":"AFETR","PERIAPSIS":"545.990","MEAN_ANOMALY":"271.3964","PERIOD":"95.592","INCLINATION":"53.0533","RCS_SIZE":"LARGE","OBJECT_NAME":"STARLINK-1457","ARG_OF_PERICENTER":"88.7226"},{"TLE_LINE1":"1 45675U 20035U   23120.29774223  .00001525  00000-0  12129-3 0  9992","LAUNCH_DATE":"2020-06-04","CLASSIFICATION_TYPE":"U","NORAD_CAT_ID":"45675","GP_ID":"230973754","OBJECT_TYPE":"PAYLOAD","OBJECT_ID":"2020-035U","APOAPSIS":"548.390","MEAN_MOTION_DDOT":"0.0000000000000","TIME_SYSTEM":"UTC","CENTER_NAME":"EARTH","MEAN_MOTION_DOT":"0.00001525","DECAY_DATE":null,"MEAN_ELEMENT_THEORY":"SGP4","RA_OF_ASC_NODE":"75.0706","FILE":"3897442","TLE_LINE2":"2 45675  53.0551  75.0706 0001629  81.2267 278.8906 15.06384241161289","REV_AT_EPOCH":"16128","MEAN_MOTION":"15.06384241","REF_FRAME":"TEME","ARG_OF_PERICENTER":"81.2267","OBJECT_NAME":"STARLINK-1458","RCS_SIZE":"LARGE","INCLINATION":"53.0551","PERIOD":"95.593","MEAN_ANOMALY":"278.8906","PERIAPSIS":"546.134","SITE":"AFETR","COUNTRY_CODE":"US","EPHEMERIS_TYPE":"0","BSTAR":"0.00012129000000","ECCENTRICITY":"0.00016290","ELEMENT_SET_NO":"999","EPOCH":"2023-04-30T07:08:44.928672","SEMIMAJOR_AXIS":"6925.397"},{"TLE_LINE1":"1 45676U 20035V   23120.13552905 -.00012925  00000-0 -85093-3 0  9995","LAUNCH_DATE":"2020-06-04","CLASSIFICATION_TYPE":"U","NORAD_CAT_ID":"45676","OBJECT_TYPE":"PAYLOAD","GP_ID":"230973004","APOAPSIS":"548.478","MEAN_MOTION_DDOT":"0.0000000000000","OBJECT_ID":"2020-035V","TIME_SYSTEM":"UTC","CENTER_NAME":"EARTH","DECAY_DATE":null,"MEAN_MOTION_DOT":"-0.00012925","MEAN_ELEMENT_THEORY":"SGP4","FILE":"3897442","RA_OF_ASC_NODE":"75.8008","MEAN_MOTION":"15.06374586","TLE_LINE2":"2 45676  53.0526  75.8008 0001713 110.7360 249.3813 15.06374586161259","REV_AT_EPOCH":"16125","REF_FRAME":"TEME","OBJECT_NAME":"STARLINK-1460","ARG_OF_PERICENTER":"110.7360","RCS_SIZE":"LARGE","MEAN_ANOMALY":"249.3813","INCLINATION":"53.0526","PERIOD":"95.594","PERIAPSIS":"546.105","SITE":"AFETR","COUNTRY_CODE":"US","EPHEMERIS_TYPE":"0","BSTAR":"-0.00085093000000","EPOCH":"2023-04-30T03:15:09.709920","ELEMENT_SET_NO":"999","ECCENTRICITY":"0.00017130","SEMIMAJOR_AXIS":"6925.426"},{"DECAY_DATE":null,"MEAN_MOTION_DOT":"0.00003753","MEAN_ELEMENT_THEORY":"SGP4","FILE":"3897442","RA_OF_ASC_NODE":"75.1567","MEAN_MOTION":"15.06396929","TLE_LINE2":"2 45677  53.0526  75.1567 0001649  69.8680 290.2486 15.06396929161313","REV_AT_EPOCH":"16131","REF_FRAME":"TEME","TLE_LINE1":"1 45677U 20035W   23120.27931968  .00003753  00000-0  27074-3 0  9993","LAUNCH_DATE":"2020-06-04","CLASSIFICATION_TYPE":"U","NORAD_CAT_ID":"45677","OBJECT_TYPE":"PAYLOAD","GP_ID":"230973254","MEAN_MOTION_DDOT":"0.0000000000000","APOAPSIS":"548.365","OBJECT_ID":"2020-035W","CENTER_NAME":"EARTH","TIME_SYSTEM":"UTC","COUNTRY_CODE":"US","EPHEMERIS_TYPE":"0","BSTAR":"0.00027074000000","ELEMENT_SET_NO":"999","EPOCH":"2023-04-30T06:42:13.220352","ECCENTRICITY":"0.00016490","SEMIMAJOR_AXIS":"6925.358","OBJECT_NAME":"STARLINK-1392","ARG_OF_PERICENTER":"69.8680","RCS_SIZE":"LARGE","MEAN_ANOMALY":"290.2486","PERIOD":"95.592","INCLINATION":"53.0526","PERIAPSIS":"546.081","SITE":"AFETR"}];
